{
  "links" : {
    "next" : "https://api.nasa.gov/neo/rest/v1/feed?start_date=2015-03-16&end_date=2015-03-16&detailed=true&api_key=t0TVs3DtDT2H8Oy2Zy8m2eVrNsAVKAexjcZXUckd",
    "prev" : "https://api.nasa.gov/neo/rest/v1/feed?start_date=2015-03-14&end_date=2015-03-14&detailed=true&api_key=t0TVs3DtDT2H8Oy2Zy8m2eVrNsAVKAexjcZXUckd",
    "self" : "https://api.nasa.gov/neo/rest/v1/feed?start_date=2015-03-15&end_date=2015-03-15&detailed=true&api_key=t0TVs3DtDT2H8Oy2Zy8m2eVrNsAVKAexjcZXUckd"
  },
  "element_count" : 14,
  "near_earth_objects" : {
    "2015-03-15" : [ {
      "links" : {
        "self" : "https://api.nasa.gov/neo/rest/v1/neo/3765641?api_key=t0TVs3DtDT2H8Oy2Zy8m2eVrNsAVKAexjcZXUckd"
      },
      "neo_reference_id" : "3765641",
      "name" : "(2016 XB2)",
      "nasa_jpl_url" : "http://ssd.jpl.nasa.gov/sbdb.cgi?sstr=3765641",
      "absolute_magnitude_h" : 21.5,
      "estimated_diameter" : {
        "kilometers" : {
          "estimated_diameter_min" : 0.1332155667,
          "estimated_diameter_max" : 0.2978790628
        },
        "meters" : {
          "estimated_diameter_min" : 133.2155666981,
          "estimated_diameter_max" : 297.8790627982
        },
        "miles" : {
          "estimated_diameter_min" : 0.0827762899,
          "estimated_diameter_max" : 0.1850934111
        },
        "feet" : {
          "estimated_diameter_min" : 437.0589598459,
          "estimated_diameter_max" : 977.2935443908
        }
      },
      "is_potentially_hazardous_asteroid" : false,
      "close_approach_data" : [ {
        "close_approach_date" : "2015-03-15",
        "epoch_date_close_approach" : 1426402800000,
        "relative_velocity" : {
          "kilometers_per_second" : "26.857521159",
          "kilometers_per_hour" : "96687.0761725167",
          "miles_per_hour" : "60077.5890806396"
        },
        "miss_distance" : {
          "astronomical" : "0.3911027343",
          "lunar" : "152.138961792",
          "kilometers" : "58508136",
          "miles" : "36355272"
        },
        "orbiting_body" : "Earth"
      } ],
      "orbital_data" : {
        "orbit_id" : "7",
        "orbit_determination_date" : "2017-04-06 08:21:38",
        "orbit_uncertainty" : "7",
        "minimum_orbit_intersection" : ".120888",
        "jupiter_tisserand_invariant" : "5.271",
        "epoch_osculation" : "2458000.5",
        "eccentricity" : ".4988982436283761",
        "semi_major_axis" : "1.164557282131276",
        "inclination" : "11.83449066586588",
        "ascending_node_longitude" : "253.2788787460461",
        "orbital_period" : "459.0285626976867",
        "perihelion_distance" : ".5835616994713472",
        "perihelion_argument" : "38.73026297656523",
        "aphelion_distance" : "1.745552864791206",
        "perihelion_time" : "2458066.481299940825",
        "mean_anomaly" : "308.2531809369331",
        "mean_motion" : ".784264922174557",
        "equinox" : "J2000"
      }
    }, {
      "links" : {
        "self" : "https://api.nasa.gov/neo/rest/v1/neo/2483656?api_key=t0TVs3DtDT2H8Oy2Zy8m2eVrNsAVKAexjcZXUckd"
      },
      "neo_reference_id" : "2483656",
      "name" : "483656 (2005 ES70)",
      "nasa_jpl_url" : "http://ssd.jpl.nasa.gov/sbdb.cgi?sstr=2483656",
      "absolute_magnitude_h" : 23.8,
      "estimated_diameter" : {
        "kilometers" : {
          "estimated_diameter_min" : 0.046190746,
          "estimated_diameter_max" : 0.1032856481
        },
        "meters" : {
          "estimated_diameter_min" : 46.1907460282,
          "estimated_diameter_max" : 103.2856480504
        },
        "miles" : {
          "estimated_diameter_min" : 0.0287015901,
          "estimated_diameter_max" : 0.0641787064
        },
        "feet" : {
          "estimated_diameter_min" : 151.544447199,
          "estimated_diameter_max" : 338.8636855496
        }
      },
      "is_potentially_hazardous_asteroid" : false,
      "close_approach_data" : [ {
        "close_approach_date" : "2015-03-15",
        "epoch_date_close_approach" : 1426402800000,
        "relative_velocity" : {
          "kilometers_per_second" : "12.0761852415",
          "kilometers_per_hour" : "43474.266869251",
          "miles_per_hour" : "27013.2187666187"
        },
        "miss_distance" : {
          "astronomical" : "0.0562218184",
          "lunar" : "21.8702869415",
          "kilometers" : "8410664",
          "miles" : "5226144.5"
        },
        "orbiting_body" : "Earth"
      } ],
      "orbital_data" : {
        "orbit_id" : "41",
        "orbit_determination_date" : "2017-07-20 13:13:56",
        "orbit_uncertainty" : "0",
        "minimum_orbit_intersection" : ".0515902",
        "jupiter_tisserand_invariant" : "7.480",
        "epoch_osculation" : "2456125.5",
        "eccentricity" : ".3864450668773289",
        "semi_major_axis" : ".7629535011587539",
        "inclination" : "20.83340836762825",
        "ascending_node_longitude" : "352.9209234711133",
        "orbital_period" : "243.4139883487221",
        "perihelion_distance" : ".468113884379167",
        "perihelion_argument" : "351.1779799498096",
        "aphelion_distance" : "1.057793117938341",
        "perihelion_time" : "2456231.633385316556",
        "mean_anomaly" : "203.0327732060237",
        "mean_motion" : "1.478961839630405",
        "equinox" : "J2000"
      }
    } ]
  }
}